start=new Date('2021-11-17T00:00:00.000Z').valueOf();
sats=[{"REV_AT_EPOCH":"6904","OBJECT_TYPE":"PAYLOAD","COUNTRY_CODE":"US","ARG_OF_PERICENTER":"78.2347","NORAD_CAT_ID":"46137","PERIOD":"95.593","MEAN_ELEMENT_THEORY":"SGP4","CENTER_NAME":"EARTH","TIME_SYSTEM":"UTC","EPOCH":"2021-11-16T06:41:47.742720","GP_ID":"189879949","ELEMENT_SET_NO":"999","RA_OF_ASC_NODE":"164.4192","SITE":"AFETR","OBJECT_NAME":"STARLINK-1586","PERIAPSIS":"546.137","MEAN_MOTION_DDOT":"0.0000000000000","CLASSIFICATION_TYPE":"U","SEMIMAJOR_AXIS":"6925.392","APOAPSIS":"548.377","INCLINATION":"53.0529","TLE_LINE2":"2 46137  53.0529 164.4192 0001617  78.2347 281.8823 15.06385865 69048","MEAN_MOTION_DOT":"0.00000887","REF_FRAME":"TEME","BSTAR":"0.00007844000000","FILE":"3216827","MEAN_ANOMALY":"281.8823","TLE_LINE1":"1 46137U 20057W   21320.27902480  .00000887  00000-0  78440-4 0  9995","EPHEMERIS_TYPE":"0","DECAY_DATE":null,"MEAN_MOTION":"15.06385865","LAUNCH_DATE":"2020-08-18","OBJECT_ID":"2020-057W","ECCENTRICITY":"0.00016170","RCS_SIZE":"LARGE"},{"ECCENTRICITY":"0.00017660","RCS_SIZE":"LARGE","OBJECT_ID":"2020-057X","LAUNCH_DATE":"2020-08-18","EPHEMERIS_TYPE":"0","TLE_LINE1":"1 46138U 20057X   21320.34352760 -.00000524  00000-0 -16269-4 0  9995","MEAN_MOTION":"15.06394424","DECAY_DATE":null,"OBJECT_NAME":"STARLINK-1590","PERIAPSIS":"546.008","MEAN_MOTION_DDOT":"0.0000000000000","RA_OF_ASC_NODE":"184.1312","SITE":"AFETR","GP_ID":"189881201","ELEMENT_SET_NO":"999","BSTAR":"-0.00001626900000","REF_FRAME":"TEME","MEAN_ANOMALY":"284.6592","FILE":"3216827","TLE_LINE2":"2 46138  53.0537 184.1312 0001766  75.4593 284.6592 15.06394424 68772","MEAN_MOTION_DOT":"-0.00000524","SEMIMAJOR_AXIS":"6925.366","APOAPSIS":"548.454","INCLINATION":"53.0537","CLASSIFICATION_TYPE":"U","PERIOD":"95.592","NORAD_CAT_ID":"46138","ARG_OF_PERICENTER":"75.4593","REV_AT_EPOCH":"6877","OBJECT_TYPE":"PAYLOAD","COUNTRY_CODE":"US","EPOCH":"2021-11-16T08:14:40.784640","TIME_SYSTEM":"UTC","CENTER_NAME":"EARTH","MEAN_ELEMENT_THEORY":"SGP4"},{"EPHEMERIS_TYPE":"0","TLE_LINE1":"1 46140U 20057Z   21320.50202045 -.00001085  00000-0 -53953-4 0  9990","MEAN_MOTION":"15.06391080","DECAY_DATE":null,"RCS_SIZE":"LARGE","ECCENTRICITY":"0.00018530","OBJECT_ID":"2020-057Z","LAUNCH_DATE":"2020-08-18","PERIOD":"95.593","NORAD_CAT_ID":"46140","ARG_OF_PERICENTER":"76.4087","COUNTRY_CODE":"US","OBJECT_TYPE":"PAYLOAD","REV_AT_EPOCH":"7062","EPOCH":"2021-11-16T12:02:54.566880","TIME_SYSTEM":"UTC","CENTER_NAME":"EARTH","MEAN_ELEMENT_THEORY":"SGP4","MEAN_MOTION_DDOT":"0.0000000000000","PERIAPSIS":"545.958","OBJECT_NAME":"STARLINK-1594","SITE":"AFETR","RA_OF_ASC_NODE":"143.4280","ELEMENT_SET_NO":"999","GP_ID":"189879448","FILE":"3216827","MEAN_ANOMALY":"283.7109","REF_FRAME":"TEME","BSTAR":"-0.00005395300000","MEAN_MOTION_DOT":"-0.00001085","TLE_LINE2":"2 46140  53.0528 143.4280 0001853  76.4087 283.7109 15.06391080 70629","APOAPSIS":"548.524","INCLINATION":"53.0528","SEMIMAJOR_AXIS":"6925.376","CLASSIFICATION_TYPE":"U"},{"TLE_LINE1":"1 46141U 20057AA  21320.54625545 -.00001240  00000-0 -64360-4 0  9996","EPHEMERIS_TYPE":"0","DECAY_DATE":null,"MEAN_MOTION":"15.06389782","LAUNCH_DATE":"2020-08-18","OBJECT_ID":"2020-057AA","ECCENTRICITY":"0.00016290","RCS_SIZE":"LARGE","REV_AT_EPOCH":"6936","COUNTRY_CODE":"US","OBJECT_TYPE":"PAYLOAD","ARG_OF_PERICENTER":"86.0066","NORAD_CAT_ID":"46141","PERIOD":"95.593","MEAN_ELEMENT_THEORY":"SGP4","CENTER_NAME":"EARTH","TIME_SYSTEM":"UTC","EPOCH":"2021-11-16T13:06:36.470880","GP_ID":"189879692","ELEMENT_SET_NO":"999","RA_OF_ASC_NODE":"143.2291","SITE":"AFETR","OBJECT_NAME":"STARLINK-1596","MEAN_MOTION_DDOT":"0.0000000000000","PERIAPSIS":"546.117","CLASSIFICATION_TYPE":"U","SEMIMAJOR_AXIS":"6925.380","INCLINATION":"53.0529","APOAPSIS":"548.373","TLE_LINE2":"2 46141  53.0529 143.2291 0001629  86.0066 274.1109 15.06389782 69365","MEAN_MOTION_DOT":"-0.00001240","BSTAR":"-0.00006436000000","REF_FRAME":"TEME","FILE":"3216827","MEAN_ANOMALY":"274.1109"},{"MEAN_ELEMENT_THEORY":"SGP4","CENTER_NAME":"EARTH","TIME_SYSTEM":"UTC","EPOCH":"2021-11-16T08:46:31.060992","COUNTRY_CODE":"US","OBJECT_TYPE":"PAYLOAD","REV_AT_EPOCH":"6877","ARG_OF_PERICENTER":"69.7601","NORAD_CAT_ID":"46142","PERIOD":"95.592","CLASSIFICATION_TYPE":"U","APOAPSIS":"548.425","INCLINATION":"53.0554","SEMIMAJOR_AXIS":"6925.341","MEAN_MOTION_DOT":"0.00001375","TLE_LINE2":"2 46142  53.0554 184.0396 0001761  69.7601 290.3578 15.06402552 68778","MEAN_ANOMALY":"290.3578","FILE":"3216827","BSTAR":"0.00011120000000","REF_FRAME":"TEME","ELEMENT_SET_NO":"999","GP_ID":"189880450","SITE":"AFETR","RA_OF_ASC_NODE":"184.0396","PERIAPSIS":"545.986","MEAN_MOTION_DDOT":"0.0000000000000","OBJECT_NAME":"STARLINK-1597","DECAY_DATE":null,"MEAN_MOTION":"15.06402552","TLE_LINE1":"1 46142U 20057AB  21320.36563728  .00001375  00000-0  11120-3 0  9993","EPHEMERIS_TYPE":"0","LAUNCH_DATE":"2020-08-18","OBJECT_ID":"2020-057AB","RCS_SIZE":"LARGE","ECCENTRICITY":"0.00017610"},{"OBJECT_NAME":"STARLINK-1599","MEAN_MOTION_DDOT":"0.0000000000000","PERIAPSIS":"429.516","RA_OF_ASC_NODE":"153.8068","SITE":"AFETR","ELEMENT_SET_NO":"999","GP_ID":"189883961","REF_FRAME":"TEME","BSTAR":"0.00663950000000","FILE":"3216855","MEAN_ANOMALY":"303.2017","TLE_LINE2":"2 46143  53.0539 153.8068 0001246  56.9109 303.2017 15.45345636 69901","MEAN_MOTION_DOT":"0.00335788","SEMIMAJOR_AXIS":"6808.500","APOAPSIS":"431.213","INCLINATION":"53.0539","CLASSIFICATION_TYPE":"U","PERIOD":"93.183","NORAD_CAT_ID":"46143","ARG_OF_PERICENTER":"56.9109","REV_AT_EPOCH":"6990","COUNTRY_CODE":"US","OBJECT_TYPE":"PAYLOAD","EPOCH":"2021-11-16T19:46:47.486208","TIME_SYSTEM":"UTC","CENTER_NAME":"EARTH","MEAN_ELEMENT_THEORY":"SGP4","ECCENTRICITY":"0.00012460","RCS_SIZE":"LARGE","OBJECT_ID":"2020-057AC","LAUNCH_DATE":"2020-08-18","EPHEMERIS_TYPE":"0","TLE_LINE1":"1 46143U 20057AC  21320.82416072  .00335788  00000-0  66395-2 0  9995","MEAN_MOTION":"15.45345636","DECAY_DATE":null},{"TLE_LINE1":"1 46144U 20057AD  21320.26428204 -.00000440  00000-0 -10616-4 0  9997","EPHEMERIS_TYPE":"0","DECAY_DATE":null,"MEAN_MOTION":"15.06393208","OBJECT_ID":"2020-057AD","LAUNCH_DATE":"2020-08-18","ECCENTRICITY":"0.00019470","RCS_SIZE":"LARGE","ARG_OF_PERICENTER":"70.9189","REV_AT_EPOCH":"5729","COUNTRY_CODE":"US","OBJECT_TYPE":"PAYLOAD","PERIOD":"95.593","NORAD_CAT_ID":"46144","MEAN_ELEMENT_THEORY":"SGP4","EPOCH":"2021-11-16T06:20:33.968256","CENTER_NAME":"EARTH","TIME_SYSTEM":"UTC","RA_OF_ASC_NODE":"164.4932","SITE":"AFETR","ELEMENT_SET_NO":"999","GP_ID":"189878948","OBJECT_NAME":"STARLINK-1606","PERIAPSIS":"545.886","MEAN_MOTION_DDOT":"0.0000000000000","SEMIMAJOR_AXIS":"6925.369","INCLINATION":"53.0538","APOAPSIS":"548.583","CLASSIFICATION_TYPE":"U","BSTAR":"-0.00001061600000","REF_FRAME":"TEME","FILE":"3216827","MEAN_ANOMALY":"289.2011","TLE_LINE2":"2 46144  53.0538 164.4932 0001947  70.9189 289.2011 15.06393208 57292","MEAN_MOTION_DOT":"-0.00000440"},{"MEAN_MOTION":"15.06387569","DECAY_DATE":null,"EPHEMERIS_TYPE":"0","TLE_LINE1":"1 46146U 20057AF  21320.11132283 -.00000739  00000-0 -30734-4 0  9996","RCS_SIZE":"LARGE","ECCENTRICITY":"0.00016540","LAUNCH_DATE":"2020-08-18","OBJECT_ID":"2020-057AF","TIME_SYSTEM":"UTC","CENTER_NAME":"EARTH","EPOCH":"2021-11-16T02:40:18.292512","MEAN_ELEMENT_THEORY":"SGP4","NORAD_CAT_ID":"46146","PERIOD":"95.593","COUNTRY_CODE":"US","OBJECT_TYPE":"PAYLOAD","REV_AT_EPOCH":"6874","ARG_OF_PERICENTER":"81.3898","MEAN_MOTION_DOT":"-0.00000739","TLE_LINE2":"2 46146  53.0525 185.1828 0001654  81.3898 278.7279 15.06387569 68746","FILE":"3216827","MEAN_ANOMALY":"278.7279","BSTAR":"-0.00003073400000","REF_FRAME":"TEME","CLASSIFICATION_TYPE":"U","APOAPSIS":"548.397","INCLINATION":"53.0525","SEMIMAJOR_AXIS":"6925.387","MEAN_MOTION_DDOT":"0.0000000000000","PERIAPSIS":"546.106","OBJECT_NAME":"STARLINK-1608","ELEMENT_SET_NO":"999","GP_ID":"189879192","SITE":"AFETR","RA_OF_ASC_NODE":"185.1828"},{"DECAY_DATE":null,"MEAN_MOTION":"15.06409364","TLE_LINE1":"1 46147U 20057AG  21320.82269233  .00002989  00000-0  21943-3 0  9999","EPHEMERIS_TYPE":"0","OBJECT_ID":"2020-057AG","LAUNCH_DATE":"2020-08-18","ECCENTRICITY":"0.00018860","RCS_SIZE":"LARGE","MEAN_ELEMENT_THEORY":"SGP4","EPOCH":"2021-11-16T19:44:40.617312","TIME_SYSTEM":"UTC","CENTER_NAME":"EARTH","ARG_OF_PERICENTER":"77.6253","REV_AT_EPOCH":"6950","COUNTRY_CODE":"US","OBJECT_TYPE":"PAYLOAD","PERIOD":"95.592","NORAD_CAT_ID":"46147","SEMIMAJOR_AXIS":"6925.320","APOAPSIS":"548.491","INCLINATION":"53.0515","CLASSIFICATION_TYPE":"U","BSTAR":"0.00021943000000","REF_FRAME":"TEME","MEAN_ANOMALY":"282.4947","FILE":"3216890","TLE_LINE2":"2 46147  53.0515 181.9847 0001886  77.6253 282.4947 15.06409364 69508","MEAN_MOTION_DOT":"0.00002989","RA_OF_ASC_NODE":"181.9847","SITE":"AFETR","GP_ID":"189884503","ELEMENT_SET_NO":"999","OBJECT_NAME":"STARLINK-1611","MEAN_MOTION_DDOT":"0.0000000000000","PERIAPSIS":"545.879"},{"MEAN_MOTION":"15.06390463","DECAY_DATE":null,"EPHEMERIS_TYPE":"0","TLE_LINE1":"1 46148U 20057AH  21320.29745601 -.00000834  00000-0 -37125-4 0  9998","ECCENTRICITY":"0.00016720","RCS_SIZE":"LARGE","OBJECT_ID":"2020-057AH","LAUNCH_DATE":"2020-08-18","EPOCH":"2021-11-16T07:08:20.199264","TIME_SYSTEM":"UTC","CENTER_NAME":"EARTH","MEAN_ELEMENT_THEORY":"SGP4","PERIOD":"95.593","NORAD_CAT_ID":"46148","ARG_OF_PERICENTER":"75.9311","REV_AT_EPOCH":"6904","COUNTRY_CODE":"US","OBJECT_TYPE":"PAYLOAD","REF_FRAME":"TEME","BSTAR":"-0.00003712500000","FILE":"3216827","MEAN_ANOMALY":"284.1863","TLE_LINE2":"2 46148  53.0526 164.3335 0001672  75.9311 284.1863 15.06390463 69041","MEAN_MOTION_DOT":"-0.00000834","SEMIMAJOR_AXIS":"6925.378","APOAPSIS":"548.401","INCLINATION":"53.0526","CLASSIFICATION_TYPE":"U","OBJECT_NAME":"STARLINK-1616","MEAN_MOTION_DDOT":"0.0000000000000","PERIAPSIS":"546.085","RA_OF_ASC_NODE":"164.3335","SITE":"AFETR","ELEMENT_SET_NO":"999","GP_ID":"189881202"}];
